[{"OBJECT_NAME":"SCISAT 1","OBJECT_ID":"2003-036A","EPOCH":"2026-03-09T22:52:31.276992","MEAN_MOTION":14.8131333,"ECCENTRICITY":0.00057868,"INCLINATION":73.9323,"RA_OF_ASC_NODE":8.49,"ARG_OF_PERICENTER":97.7053,"MEAN_ANOMALY":262.4781,"EPHEMERIS_TYPE":0,"CLASSIFICATION_TYPE":"U","NORAD_CAT_ID":27858,"ELEMENT_SET_NO":999,"REV_AT_EPOCH":21675,"BSTAR":0.00015871313,"MEAN_MOTION_DOT":1.203e-5,"MEAN_MOTION_DDOT":0},{"OBJECT_NAME":"KUIPER-00089","OBJECT_ID":"2025-151U","EPOCH":"2026-03-09T19:25:03.862272","MEAN_MOTION":14.79804244,"ECCENTRICITY":7.955e-5,"INCLINATION":51.8998,"RA_OF_ASC_NODE":285.0532,"ARG_OF_PERICENTER":75.7298,"MEAN_ANOMALY":284.3752,"EPHEMERIS_TYPE":0,"CLASSIFICATION_TYPE":"U","NORAD_CAT_ID":64834,"ELEMENT_SET_NO":999,"REV_AT_EPOCH":3553,"BSTAR":0.00055758047,"MEAN_MOTION_DOT":4.019e-5,"MEAN_MOTION_DDOT":0}]
